{"type":"FeatureCollection","features":[{"type":"Feature","properties":{"name":"Khu \u0111\u00f4 th\u1ecb \u0110\u1ecbnh C\u00f4ng","osm_id":136255909},"geometry":{"type":"Point","coordinates":[105.8306171,20.9877441]}},{"type":"Feature","properties":{"name":"Khu \u0111\u00f4 th\u1ecb Vi\u1ec7t H\u01b0ng","osm_id":136266034},"geometry":{"type":"Point","coordinates":[105.9066748,21.0622055]}},{"type":"Feature","properties":{"name":"Ecopark","osm_id":161074924},"geometry":{"type":"Point","coordinates":[105.9333543,20.9609552]}},{"type":"Feature","properties":{"name":"Vinhomes Riverside","osm_id":208359485},"geometry":{"type":"Point","coordinates":[105.9124999,21.0464196]}},{"type":"Feature","properties":{"name":"Khu \u0111\u00f4 th\u1ecb Ho\u00e0ng Qu\u1ed1c Vi\u1ec7t","osm_id":332655861},"geometry":{"type":"Point","coordinates":[105.7847646,21.0519329]}},{"type":"Feature","properties":{"name":"Khu \u0111\u00f4 th\u1ecb m\u1edbi C\u1ed5 Nhu\u1ebf - Xu\u00e2n \u0110\u1ec9nh","osm_id":334484497},"geometry":{"type":"Point","coordinates":[105.7819792,21.0662606]}},{"type":"Feature","properties":{"name":"Khu \u0111\u00f4 th\u1ecb Th\u00e0nh ph\u1ed1 Giao l\u01b0u","osm_id":335145876},"geometry":{"type":"Point","coordinates":[105.7767342,21.0524652]}},{"type":"Feature","properties":{"name":"Khu \u0111\u00f4 th\u1ecb B\u1eafc Linh \u0110\u00e0m","osm_id":399557247},"geometry":{"type":"Point","coordinates":[105.8278166,20.9712422]}},{"type":"Feature","properties":{"name":"Khu \u0111\u00f4 th\u1ecb Trung V\u0103n","osm_id":399825414},"geometry":{"type":"Point","coordinates":[105.7892653,20.991485]}},{"type":"Feature","properties":{"name":"Khu \u0111\u00f4 th\u1ecb Vinaconex 3","osm_id":399827026},"geometry":{"type":"Point","coordinates":[105.7794031,20.9937631]}},{"type":"Feature","properties":{"name":"Khu \u0111\u00f4 th\u1ecb V\u0103n Qu\u00e1n","osm_id":399848102},"geometry":{"type":"Point","coordinates":[105.7915179,20.9773085]}},{"type":"Feature","properties":{"name":"Khu \u0111\u00f4 th\u1ecb V\u0103n Ph\u00fa","osm_id":399864549},"geometry":{"type":"Point","coordinates":[105.766789,20.9588047]}},{"type":"Feature","properties":{"name":"Khu \u0111\u00f4 th\u1ecb Xa La","osm_id":399867228},"geometry":{"type":"Point","coordinates":[105.7917321,20.9629653]}},{"type":"Feature","properties":{"name":"Khu \u0111\u00f4 th\u1ecb V\u0103n Kh\u00ea","osm_id":399875260},"geometry":{"type":"Point","coordinates":[105.7638004,20.9740254]}},{"type":"Feature","properties":{"name":"Khu \u0111\u00f4 th\u1ecb An H\u01b0ng","osm_id":399875448},"geometry":{"type":"Point","coordinates":[105.7546397,20.9747003]}},{"type":"Feature","properties":{"name":"Khu \u0111\u00f4 th\u1ecb D\u01b0\u01a1ng N\u1ed9i","osm_id":399879773},"geometry":{"type":"Point","coordinates":[105.7558396,20.9800497]}},{"type":"Feature","properties":{"name":"Khu \u0111\u00f4 th\u1ecb \u0110\u1eb7ng X\u00e1","osm_id":479832642},"geometry":{"type":"Point","coordinates":[105.9511587,21.0171519]}},{"type":"Feature","properties":{"name":"khu \u0111\u00f4 th\u1ecb sinh th\u00e1i Xu\u00e2n Ph\u01b0\u01a1ng Viglacera","osm_id":490663468},"geometry":{"type":"Point","coordinates":[105.7402421,21.0255474]}},{"type":"Feature","properties":{"name":"Khu \u0111\u00f4 th\u1ecb \u0110\u00f4 Ngh\u0129a","osm_id":506316708},"geometry":{"type":"Point","coordinates":[105.7352757,20.9591729]}},{"type":"Feature","properties":{"name":"Vinhomes Gardenia","osm_id":560585064},"geometry":{"type":"Point","coordinates":[105.7614459,21.0362217]}},{"type":"Feature","properties":{"name":"Khu \u0111\u00f4 th\u1ecb m\u1edbi T\u00e2y H\u1ed3 T\u00e2y","osm_id":591312013},"geometry":{"type":"Point","coordinates":[105.7971298,21.0571895]}},{"type":"Feature","properties":{"name":"Vinhomes Times City","osm_id":660081320},"geometry":{"type":"Point","coordinates":[105.8679671,20.9942929]}},{"type":"Feature","properties":{"name":"Vinhomes Ocean Park","osm_id":761986888},"geometry":{"type":"Point","coordinates":[105.9481626,20.9944288]}},{"type":"Feature","properties":{"name":"Vinhomes Smart City","osm_id":776941617},"geometry":{"type":"Point","coordinates":[105.7458672,21.002369]}},{"type":"Feature","properties":{"name":"Vinhomes D'Capitale","osm_id":839871356},"geometry":{"type":"Point","coordinates":[105.795009,21.0053155]}},{"type":"Feature","properties":{"name":"Vinhomes Skylake","osm_id":841154655},"geometry":{"type":"Point","coordinates":[105.7818288,21.0200196]}},{"type":"Feature","properties":{"name":"Vinhomes West Point","osm_id":841154662},"geometry":{"type":"Point","coordinates":[105.7854388,21.0115302]}},{"type":"Feature","properties":{"name":"Gamuda Garden","osm_id":872186253},"geometry":{"type":"Point","coordinates":[105.8754886,20.9721537]}},{"type":"Feature","properties":{"name":"Khu \u0111\u00f4 th\u1ecb M\u1ef9 \u0110\u00ecnh 1","osm_id":875488201},"geometry":{"type":"Point","coordinates":[105.7631339,21.0330958]}},{"type":"Feature","properties":{"name":"Khu \u0111\u00f4 th\u1ecb M\u1ef9 \u0110\u00ecnh 2","osm_id":875488228},"geometry":{"type":"Point","coordinates":[105.7670125,21.0312554]}},{"type":"Feature","properties":{"name":"Khu \u0111\u00f4 th\u1ecb M\u1ec5 Tr\u00ec H\u1ea1","osm_id":875493024},"geometry":{"type":"Point","coordinates":[105.7822782,21.0146791]}},{"type":"Feature","properties":{"name":"Vinhomes Royal City","osm_id":892577321},"geometry":{"type":"Point","coordinates":[105.8151179,21.0025651]}},{"type":"Feature","properties":{"name":"Vinhomes Green Bay","osm_id":893386372},"geometry":{"type":"Point","coordinates":[105.7871858,21.0004327]}},{"type":"Feature","properties":{"name":"Khu \u0111\u00f4 th\u1ecb Linh \u0110\u00e0m","osm_id":905067685},"geometry":{"type":"Point","coordinates":[105.8326238,20.9645708]}},{"type":"Feature","properties":{"name":"Khu \u0111\u00f4 th\u1ecb B\u1eafc Linh \u0110\u00e0m m\u1edf r\u1ed9ng","osm_id":905067687},"geometry":{"type":"Point","coordinates":[105.8248108,20.9671289]}},{"type":"Feature","properties":{"name":"Khu \u0111\u00f4 th\u1ecb m\u1edbi Ngh\u0129a \u0110\u00f4","osm_id":910019200},"geometry":{"type":"Point","coordinates":[105.7930338,21.0504467]}},{"type":"Feature","properties":{"name":"Vinhomes Th\u0103ng Long","osm_id":942827335},"geometry":{"type":"Point","coordinates":[105.7193473,20.9981505]}},{"type":"Feature","properties":{"name":"Khu \u0111\u00f4 th\u1ecb Quang Minh","osm_id":946707942},"geometry":{"type":"Point","coordinates":[105.7855423,21.1936476]}},{"type":"Feature","properties":{"name":"Khu \u0111\u00f4 th\u1ecb Lideco","osm_id":958618329},"geometry":{"type":"Point","coordinates":[105.7127857,21.0704047]}},{"type":"Feature","properties":{"name":"Khu \u0111\u00f4 th\u1ecb B\u1eafc An Kh\u00e1nh","osm_id":958618331},"geometry":{"type":"Point","coordinates":[105.7149215,21.0170168]}},{"type":"Feature","properties":{"name":"Khu \u0111\u00f4 th\u1ecb Thanh H\u00e0","osm_id":974572924},"geometry":{"type":"Point","coordinates":[105.7831281,20.9329475]}},{"type":"Feature","properties":{"name":"Imperia Smart City","osm_id":974924303},"geometry":{"type":"Point","coordinates":[105.7390603,21.0000175]}},{"type":"Feature","properties":{"name":"Khu \u0111\u00f4 th\u1ecb Ph\u00fa L\u01b0\u01a1ng","osm_id":1110572086},"geometry":{"type":"Point","coordinates":[105.7674205,20.9512791]}},{"type":"Feature","properties":{"name":"Khu \u0111\u00f4 th\u1ecb S\u00e0i \u0110\u1ed3ng","osm_id":1148578335},"geometry":{"type":"Point","coordinates":[105.9082711,21.03811]}},{"type":"Feature","properties":{"name":"Khu \u0111\u00f4 th\u1ecb 31ha","osm_id":1149914316},"geometry":{"type":"Point","coordinates":[105.9391935,21.01405]}},{"type":"Feature","properties":{"name":"Khu \u0111\u00f4 th\u1ecb H\u00e0 N\u1ed9i Garden City","osm_id":1173415419},"geometry":{"type":"Point","coordinates":[105.9195304,21.019584]}},{"type":"Feature","properties":{"name":"Vinhomes Ocean Park 3","osm_id":1183925307},"geometry":{"type":"Point","coordinates":[105.9752816,20.9597531]}},{"type":"Feature","properties":{"name":"Khu \u0111\u00f4 th\u1ecb Eurowindow River Park","osm_id":1185652343},"geometry":{"type":"Point","coordinates":[105.8754577,21.0787069]}},{"type":"Feature","properties":{"name":"Khu \u0111\u00f4 th\u1ecb D\u01b0\u01a1ng N\u1ed9i 2","osm_id":1196947914},"geometry":{"type":"Point","coordinates":[105.7461691,20.9643063]}},{"type":"Feature","properties":{"name":"Khu \u0111\u00f4 th\u1ecb V\u0129nh Ho\u00e0ng","osm_id":1199331280},"geometry":{"type":"Point","coordinates":[105.8671615,20.9850444]}},{"type":"Feature","properties":{"name":"Khu \u0111\u00f4 th\u1ecb m\u1edbi L\u00ea Tr\u1ecdng T\u1ea5n Geleximco - Khu A","osm_id":1227940980},"geometry":{"type":"Point","coordinates":[105.7318802,21.0050466]}},{"type":"Feature","properties":{"name":"Khu \u0111\u00f4 th\u1ecb m\u1edbi L\u00ea Tr\u1ecdng T\u1ea5n Geleximco - Khu B","osm_id":1227940981},"geometry":{"type":"Point","coordinates":[105.7344741,20.9950905]}},{"type":"Feature","properties":{"name":"Khu \u0111\u00f4 th\u1ecb m\u1edbi L\u00ea Tr\u1ecdng T\u1ea5n Geleximco - Khu C","osm_id":1227940982},"geometry":{"type":"Point","coordinates":[105.7428661,20.9849071]}},{"type":"Feature","properties":{"name":"Khu \u0111\u00f4 th\u1ecb m\u1edbi L\u00ea Tr\u1ecdng T\u1ea5n Geleximco - Khu D","osm_id":1227940983},"geometry":{"type":"Point","coordinates":[105.7406358,20.9809525]}},{"type":"Feature","properties":{"name":"Vinhomes Green Villas","osm_id":1228015939},"geometry":{"type":"Point","coordinates":[105.7601823,21.0003357]}},{"type":"Feature","properties":{"name":"Khu \u0111\u00f4 th\u1ecb Trung H\u00f2a \u2013 Nh\u00e2n Ch\u00ednh","osm_id":1229026546},"geometry":{"type":"Point","coordinates":[105.8024338,21.0062363]}},{"type":"Feature","properties":{"name":"Khu \u0111\u00f4 th\u1ecb Nam Trung Y\u00ean","osm_id":1229026549},"geometry":{"type":"Point","coordinates":[105.7883523,21.0157719]}},{"type":"Feature","properties":{"name":"Khu \u0111\u00f4 th\u1ecb M\u1ef9 \u0110\u00ecnh S\u00f4ng \u0110\u00e0","osm_id":1229850439},"geometry":{"type":"Point","coordinates":[105.777376,21.0168801]}},{"type":"Feature","properties":{"name":"Khu \u0111\u00f4 th\u1ecb V\u01b0\u1eddn Cam","osm_id":1230260333},"geometry":{"type":"Point","coordinates":[105.7208703,21.0291517]}},{"type":"Feature","properties":{"name":"The Zenpark Vinhomes Ocean Park","osm_id":1238602788},"geometry":{"type":"Point","coordinates":[105.9432798,21.0011188]}},{"type":"Feature","properties":{"name":"The Pavilion Vinhomes Ocean Park","osm_id":1238602789},"geometry":{"type":"Point","coordinates":[105.9456582,21.0025953]}},{"type":"Feature","properties":{"name":"Sapphire 2 Vinhomes Ocean Park","osm_id":1238602790},"geometry":{"type":"Point","coordinates":[105.9416765,20.9911914]}},{"type":"Feature","properties":{"name":"San H\u00f4 Vinhomes Ocean Park","osm_id":1238602791},"geometry":{"type":"Point","coordinates":[105.9476922,20.9913645]}},{"type":"Feature","properties":{"name":"Sapphire 1 Vinhomes Ocean Park","osm_id":1238602792},"geometry":{"type":"Point","coordinates":[105.9421919,20.9950003]}},{"type":"Feature","properties":{"name":"Vinhomes Metropolis","osm_id":1280512699},"geometry":{"type":"Point","coordinates":[105.8151382,21.0317175]}},{"type":"Feature","properties":{"name":"The Golden An Kh\u00e1nh","osm_id":1298606975},"geometry":{"type":"Point","coordinates":[105.7274592,21.0055721]}},{"type":"Feature","properties":{"name":"khu \u0111\u00f4 th\u1ecb m\u1edbi","osm_id":1328540796},"geometry":{"type":"Point","coordinates":[105.8447831,20.9418099]}},{"type":"Feature","properties":{"name":"Khu \u0111\u00f4 th\u1ecb \u0110\u1ed3ng T\u00e0u","osm_id":1345356071},"geometry":{"type":"Point","coordinates":[105.8482008,20.9713495]}},{"type":"Feature","properties":{"name":"Khu \u0111\u00f4 th\u1ecb The Phoenix Garden","osm_id":1388154761},"geometry":{"type":"Point","coordinates":[105.6809817,21.0940832]}},{"type":"Feature","properties":{"name":"Khu \u0111\u00f4 th\u1ecb H\u1ed3ng H\u1ea1c City Ph\u00fa M\u1ef9 H\u01b0ng","osm_id":1388809376},"geometry":{"type":"Point","coordinates":[106.0140376,21.0148009]}},{"type":"Feature","properties":{"name":"Khu LK9 Khu \u0110\u00f4 Th\u1ecb M\u1eadu L\u01b0\u01a1ng","osm_id":1419109133},"geometry":{"type":"Point","coordinates":[105.7941419,20.9557689]}},{"type":"Feature","properties":{"name":"Khu \u0110\u00f4 Th\u1ecb Ao S\u00e0o","osm_id":1445097569},"geometry":{"type":"Point","coordinates":[105.8522584,20.9747171]}},{"type":"Feature","properties":{"name":"Khu \u0110\u00f4 Th\u1ecb \u0110\u1ec1n L\u1eeb II","osm_id":1446002215},"geometry":{"type":"Point","coordinates":[105.8590474,20.9856435]}},{"type":"Feature","properties":{"name":"Khu \u0110\u00f4 Th\u1ecb \u0110\u1ec1n L\u1eeb I","osm_id":1446002216},"geometry":{"type":"Point","coordinates":[105.8613807,20.9851241]}},{"type":"Feature","properties":{"name":"FLC Garden City \u0110\u1ea1i M\u1ed7","osm_id":1451382743},"geometry":{"type":"Point","coordinates":[105.7547271,20.9908924]}},{"type":"Feature","properties":{"name":"Khu \u0111\u00f4 th\u1ecb T\u1ed5ng C\u1ee5c 5","osm_id":1460908165},"geometry":{"type":"Point","coordinates":[105.7981949,20.9698595]}},{"type":"Feature","properties":{"name":"Khu \u0111\u00f4 th\u1ecb \u0110\u00f4ng D\u01b0\u01a1ng Riva","osm_id":1465122026},"geometry":{"type":"Point","coordinates":[105.6933252,21.080553]}},{"type":"Feature","properties":{"name":"Chung c\u01b0 THT New City","osm_id":1467995246},"geometry":{"type":"Point","coordinates":[105.7221468,21.0628164]}},{"type":"Feature","properties":{"name":"Khu \u0111\u00f4 th\u1ecb m\u1edbi \u0110\u1ea1i Kim","osm_id":1482579803},"geometry":{"type":"Point","coordinates":[105.8167785,20.9779889]}},{"type":"Feature","properties":{"name":"Khu \u0111\u00f4 th\u1ecb S\u1ed1ng Ho\u00e0ng","osm_id":1483315139},"geometry":{"type":"Point","coordinates":[105.8683744,20.9895386]}},{"type":"Feature","properties":{"name":"Vista Lago Nam An Kh\u00e1nh","osm_id":1484064385},"geometry":{"type":"Point","coordinates":[105.7179594,21.0006534]}},{"type":"Feature","properties":{"name":"Khu \u0111\u00f4 th\u1ecb Nh\u00e0 v\u01b0\u1eddn Apromaco","osm_id":1491676011},"geometry":{"type":"Point","coordinates":[105.8572014,20.9827414]}},{"type":"Feature","properties":{"name":"Vinhomes Times City - Park Hill","osm_id":1503681355},"geometry":{"type":"Point","coordinates":[105.868937,20.9917054]}},{"type":"Feature","properties":{"name":"Vinhomes Times City - Park Hill PREMIUM","osm_id":1503681356},"geometry":{"type":"Point","coordinates":[105.8665748,20.9922322]}},{"type":"Feature","properties":{"name":"Vinhomes Times City","osm_id":1503681357},"geometry":{"type":"Point","coordinates":[105.8689065,20.9949679]}},{"type":"Feature","properties":{"name":"Khu \u0111\u00f4 th\u1ecb Y\u00ean Duy\u00ean","osm_id":1510220375},"geometry":{"type":"Point","coordinates":[105.8696235,20.9679939]}},{"type":"Feature","properties":{"name":"Khu \u0111\u00f4 th\u1ecb Nam Th\u0103ng Long","osm_id":17652702},"geometry":{"type":"Point","coordinates":[105.8009158,21.0786518]}},{"type":"Feature","properties":{"name":"Khu \u0111\u00f4 th\u1ecb T\u00e2y Nam Linh \u0110\u00e0m","osm_id":18290146},"geometry":{"type":"Point","coordinates":[105.8233556,20.9613814]}},{"type":"Feature","properties":{"name":"Khu \u0111\u00f4 th\u1ecb Y\u00ean H\u00f2a","osm_id":18581530},"geometry":{"type":"Point","coordinates":[105.7878545,21.0228177]}},{"type":"Feature","properties":{"name":"Khu \u0111\u00f4 th\u1ecb Ph\u00e1p V\u00e2n - T\u1ee9 Hi\u1ec7p","osm_id":19298801},"geometry":{"type":"Point","coordinates":[105.847561,20.9587344]}},{"type":"Feature","properties":{"name":"Khu \u0111\u00f4 th\u1ecb Nam An Kh\u00e1nh","osm_id":21054720},"geometry":{"type":"Point","coordinates":[105.7198273,21.0018413]}},{"type":"Feature","properties":{"name":"Khu \u0111\u00f4 th\u1ecb \u0110\u1ea1i Kim - \u0110\u1ecbnh C\u00f4ng","osm_id":21059350},"geometry":{"type":"Point","coordinates":[105.8351861,20.9762574]}}]}